0 FENGYUN 1C DEB
1 30823U 99025AVH 13281.01015284  .00000084  00000-0  81875-4 0  6203
2 30823 098.8707 197.7786 0141250 231.3468 187.1702 13.98388457338200
0 FENGYUN 1C DEB
1 30823U 99025AVH 13282.72897738 -.00000010  00000-0  21549-4 0  6217
2 30823 098.8707 199.4419 0141375 226.5744 200.0869 13.98390347338449
0 FENGYUN 1C DEB
1 30823U 99025AVH 13285.01724716 -.00000071  00000-0 -18121-4 0  6228
2 30823 098.8708 201.6561 0141528 220.2177 199.7272 13.98391130338763
0 FENGYUN 1C DEB
1 30823U 99025AVH 13286.73355958 -.00000052  00000-0 -56473-5 0  6239
2 30823 098.8708 203.3170 0141649 215.4607 200.0067 13.98391182339009
0 FENGYUN 1C DEB
1 30823U 99025AVH 13289.25758108 -.00000052  00000-0 -55736-5 0  6245
2 30823 098.8706 205.7594 0141821 208.4483 306.4837 13.98392108339352
0 FENGYUN 1C DEB
1 30823U 99025AVH 13290.74045550 -.00000004  00000-0  24879-4 0  6251
2 30823 098.8703 207.1944 0141919 204.3267 211.6056 13.98391940339563
0 FENGYUN 1C DEB
1 30823U 99025AVH 13292.74391987  .00000052  00000-0  60558-4 0  6268
2 30823 098.8700 209.1330 0142025 198.7453 217.5068 13.98391906339844
0 FENGYUN 1C DEB
1 30823U 99025AVH 13293.74561348  .00000069  00000-0  71654-4 0  6277
2 30823 098.8700 210.1023 0142082 195.9690 220.2482 13.98391917339988
0 FENGYUN 1C DEB
1 30823U 99025AVH 13294.74737705  .00000083  00000-0  80677-4 0  6282
2 30823 098.8702 211.0714 0142160 193.1855 223.3489 13.98392036340129
